STARLINK-30364          
1 57741U 23131K   26001.80871906 -.00028536  00000+0 -20985-2 0  9993
2 57741  43.0022 175.1963 0001679 283.9772  76.0883 15.02667262129865
STARLINK-30308          
1 57742U 23131L   26001.82204031 -.00000267  00000+0 -47264-5 0  9998
2 57742  43.0040 175.2945 0001425 263.9390  96.1290 15.02523702129876
STARLINK-30361          
1 57743U 23131M   26001.47300465  .00000380  00000+0  43226-4 0  9995
2 57743  43.0015 176.9737 0000918 240.5882 119.4869 15.02534976129819
STARLINK-30363          
1 57744U 23131N   26001.49550881 -.00002217  00000+0 -14910-3 0  9997
2 57744  43.0027 164.3706 0001704 268.3647  91.7001 15.02525760129968
STARLINK-30362          
1 57745U 23131P   26001.53614984  .00000752  00000+0  70694-4 0  9990
2 57745  43.0027 176.5895 0001084 260.5395  99.5325 15.02538117129828
STARLINK-30350          
1 57746U 23131Q   26001.49965299 -.00001478  00000+0 -94327-4 0  9991
2 57746  43.0047 177.1608 0001322 290.7665  69.3036 15.02535545129815
STARLINK-30307          
1 57747U 23131R   26001.53726088  .00001065  00000+0  93897-4 0  9999
2 57747  43.0015 176.5969 0000593 301.0191  59.0593 15.02534872129820
STARLINK-30356          
1 57748U 23131S   26001.52950799  .00002045  00000+0  16643-3 0  9999
2 57748  43.0027 176.5396 0001192 251.4757 108.5956 15.02535154129827
STARLINK-30366          
1 57749U 23131T   26001.50952247  .00000045  00000+0  18403-4 0  9993
2 57749  43.0017 176.3893 0001581 274.1007  85.9655 15.02528892129824
STARLINK-30357          
1 57750U 23131U   26001.51950096  .00000948  00000+0  85236-4 0  9996
2 57750  43.0019 176.4628 0001173 264.7688  95.3020 15.02537610129821
STARLINK-30370          
1 57751U 23131V   26001.82455321  .00000973  00000+0  87098-4 0  9998
2 57751  43.0041 162.5745 0001496 271.7194  88.3477 15.02539531130016
STARLINK-30368          
1 57752U 23131W   26001.87852227  .00001520  00000+0  12760-3 0  9992
2 57752  43.0027 174.8215 0001238 263.7808  96.2893 15.02526835129871
STARLINK-30343          
1 57753U 23131X   26001.78874339  .00001012  00000+0  89946-4 0  9998
2 57753  43.0018 175.0424 0000879 260.5817  99.4926 15.02537833129863
WILDFIRE 4              
1 57756U 23133A   26001.93007355  .00000146  00000+0  11661-3 0  9991
2 57756  81.0018 165.9954 0010473  86.4562 273.7792 13.86326589118081
BB4                     
1 57757U 23133B   26001.97133118  .00000211  00000+0  15610-3 0  9994
2 57757  80.9987 166.7677 0009637  88.6412 271.5852 13.92174091118016
WILDFIRE 3              
1 57758U 23133C   26001.93567103  .00000111  00000+0  86924-4 0  9992
2 57758  80.9967 165.8404 0009346  87.2460 272.9766 13.86096650118069
BB3                     
1 57760U 23133D   26001.94421068  .00000258  00000+0  12211-3 0  9994
2 57760  80.9980 163.1310 0095253  71.1966 289.9510 14.14712378118237
WILDFIRE 7              
1 57761U 23133E   26001.92383271  .00000212  00000+0  17768-3 0  9998
2 57761  80.9986 167.4929 0006027 121.4449 238.7297 13.85063737117972
CHECKMATE 10            
1 57762U 23133F   26001.87990255  .00000138  00000+0  11095-3 0  9993
2 57762  81.0000 167.0752 0006821 100.8880 259.3044 13.85456871118003
WILDFIRE 6              
1 57763U 23133G   26001.91713456  .00000141  00000+0  11447-3 0  9990
2 57763  80.9948 166.8182 0006344 107.2287 252.9564 13.85302557117993
WILDFIRE 1              
1 57764U 23133H   26001.96495120  .00000190  00000+0  15653-3 0  9998
2 57764  80.9992 166.6417 0007142  91.0497 269.1478 13.85697304118039
WILDFIRE 9              
1 57765U 23133J   26001.95110097  .00000119  00000+0  94772-4 0  9996
2 57765  81.0034 167.4766 0006573 104.1141 256.0746 13.85368632118003
WILDFIRE 10             
1 57766U 23133K   26002.17929670  .00000116  00000+0  91896-4 0  9998
2 57766  81.0022 166.8575 0007003  95.2330 264.9626 13.85581459118055
WILDFIRE 2              
1 57767U 23133L   26001.92063131  .00000125  00000+0  10064-3 0  9999
2 57767  80.9958 167.0652 0006237 114.9326 245.2479 13.85170067117981
WILDFIRE 8              
1 57768U 23133M   26001.92882443  .00000132  00000+0  10598-3 0  9995
2 57768  80.9945 166.6576 0006515 103.9491 256.2390 13.85399767118017
WILDFIRE 5              
1 57769U 23133N   26001.89902766  .00000135  00000+0  10910-3 0  9994
2 57769  81.0030 167.3952 0006733 100.9275 259.2639 13.85430926118001
STARLINK-30397          
1 57771U 23134A   26001.59216994 -.00001463  00000+0 -93237-4 0  9997
2 57771  43.0045 202.4760 0002126 260.7408  99.3194 15.02533480129372
STARLINK-30354          
1 57772U 23134B   26001.60537755  .00003550  00000+0  27762-3 0  9997
2 57772  43.0020 201.7151 0001981 257.7386 102.3234 15.02552257129385
STARLINK-30383          
1 57773U 23134C   25365.99055233  .00001244  00000+0  10716-3 0  9997
2 57773  43.0020 205.7035 0000877 267.0174  93.0568 15.02540374129285
STARLINK-30384          
1 57774U 23134D   25365.98388133  .00001485  00000+0  12493-3 0  9996
2 57774  43.0027 205.6523 0001239 268.5082  91.5619 15.02547211129288
