OBJECT_NAME,OBJECT_ID,EPOCH,MEAN_MOTION,ECCENTRICITY,INCLINATION,RA_OF_ASC_NODE,ARG_OF_PERICENTER,MEAN_ANOMALY,EPHEMERIS_TYPE,CLASSIFICATION_TYPE,NORAD_CAT_ID,ELEMENT_SET_NO,REV_AT_EPOCH,BSTAR,MEAN_MOTION_DOT,MEAN_MOTION_DDOT
STARLINK-30364,2023-131K,2026-01-01T19:24:33.326784,15.02667262,.00016799,43.0022,175.1963,283.9772,76.0883,0,U,57741,999,12986,-.2098526E-2,-.28536E-3,0
STARLINK-30308,2023-131L,2026-01-01T19:43:44.282784,15.02523702,.00014253,43.0040,175.2945,263.9390,96.1290,0,U,57742,999,12987,-.4726427E-5,-.267E-5,0
STARLINK-30361,2023-131M,2026-01-01T11:21:07.601760,15.02534976,.0000918,43.0015,176.9737,240.5882,119.4869,0,U,57743,999,12981,.43226E-4,.38E-5,0
STARLINK-30363,2023-131N,2026-01-01T11:53:31.961184,15.02525760,.0001704,43.0027,164.3706,268.3647,91.7001,0,U,57744,999,12996,-.1491E-3,-.2217E-4,0
STARLINK-30362,2023-131P,2026-01-01T12:52:03.346176,15.02538117,.0001084,43.0027,176.5895,260.5395,99.5325,0,U,57745,999,12982,.70694E-4,.752E-5,0
STARLINK-30350,2023-131Q,2026-01-01T11:59:30.018336,15.02535545,.0001322,43.0047,177.1608,290.7665,69.3036,0,U,57746,999,12981,-.94327E-4,-.1478E-4,0
STARLINK-30307,2023-131R,2026-01-01T12:53:39.340032,15.02534872,.0000593,43.0015,176.5969,301.0191,59.0593,0,U,57747,999,12982,.93897E-4,.1065E-4,0
STARLINK-30356,2023-131S,2026-01-01T12:42:29.490336,15.02535154,.0001192,43.0027,176.5396,251.4757,108.5956,0,U,57748,999,12982,.16643E-3,.2045E-4,0
STARLINK-30366,2023-131T,2026-01-01T12:13:42.741408,15.02528892,.0001581,43.0017,176.3893,274.1007,85.9655,0,U,57749,999,12982,.18403E-4,.45E-6,0
STARLINK-30357,2023-131U,2026-01-01T12:28:04.882944,15.02537610,.0001173,43.0019,176.4628,264.7688,95.3020,0,U,57750,999,12982,.85236E-4,.948E-5,0
STARLINK-30370,2023-131V,2026-01-01T19:47:21.397344,15.02539531,.00014969,43.0041,162.5745,271.7194,88.3477,0,U,57751,999,13001,.87098153E-4,.973E-5,0
STARLINK-30368,2023-131W,2026-01-01T21:05:04.324128,15.02526835,.0001238,43.0027,174.8215,263.7808,96.2893,0,U,57752,999,12987,.1276E-3,.152E-4,0
STARLINK-30343,2023-131X,2026-01-01T18:55:47.428896,15.02537833,.00008796,43.0018,175.0424,260.5817,99.4926,0,U,57753,999,12986,.89946352E-4,.1012E-4,0
WILDFIRE 4,2023-133A,2026-01-01T22:19:18.354720,13.86326589,.0010473,81.0018,165.9954,86.4562,273.7792,0,U,57756,999,11808,.11661E-3,.146E-5,0
BB4,2023-133B,2026-01-01T23:18:43.013952,13.92174091,.0009637,80.9987,166.7677,88.6412,271.5852,0,U,57757,999,11801,.1561E-3,.211E-5,0
WILDFIRE 3,2023-133C,2026-01-01T22:27:21.976992,13.86096650,.0009346,80.9967,165.8404,87.2460,272.9766,0,U,57758,999,11806,.86924E-4,.111E-5,0
BB3,2023-133D,2026-01-01T22:39:39.802752,14.14712378,.0095253,80.9980,163.1310,71.1966,289.9510,0,U,57760,999,11823,.12211E-3,.258E-5,0
WILDFIRE 7,2023-133E,2026-01-01T22:10:19.146144,13.85063737,.0006027,80.9986,167.4929,121.4449,238.7297,0,U,57761,999,11797,.17768E-3,.212E-5,0
CHECKMATE 10,2023-133F,2026-01-01T21:07:03.580320,13.85456871,.0006821,81.0000,167.0752,100.8880,259.3044,0,U,57762,999,11800,.11095E-3,.138E-5,0
WILDFIRE 6,2023-133G,2026-01-01T22:00:40.425984,13.85302557,.0006344,80.9948,166.8182,107.2287,252.9564,0,U,57763,999,11799,.11447E-3,.141E-5,0
WILDFIRE 1,2023-133H,2026-01-01T23:09:31.783680,13.85697304,.0007142,80.9992,166.6417,91.0497,269.1478,0,U,57764,999,11803,.15653E-3,.19E-5,0
WILDFIRE 9,2023-133J,2026-01-01T22:49:35.123808,13.85368632,.0006573,81.0034,167.4766,104.1141,256.0746,0,U,57765,999,11800,.94772E-4,.119E-5,0
WILDFIRE 10,2023-133K,2026-01-02T04:18:11.234880,13.85581459,.0007003,81.0022,166.8575,95.2330,264.9626,0,U,57766,999,11805,.91896E-4,.116E-5,0
WILDFIRE 2,2023-133L,2026-01-01T22:05:42.545184,13.85170067,.0006237,80.9958,167.0652,114.9326,245.2479,0,U,57767,999,11798,.10064E-3,.125E-5,0
WILDFIRE 8,2023-133M,2026-01-01T22:17:30.430752,13.85399767,.0006515,80.9945,166.6576,103.9491,256.2390,0,U,57768,999,11801,.10598E-3,.132E-5,0
WILDFIRE 5,2023-133N,2026-01-01T21:34:35.989824,13.85430926,.0006733,81.0030,167.3952,100.9275,259.2639,0,U,57769,999,11800,.1091E-3,.135E-5,0
STARLINK-30397,2023-134A,2026-01-01T14:12:43.482816,15.02533480,.0002126,43.0045,202.4760,260.7408,99.3194,0,U,57771,999,12937,-.93237E-4,-.1463E-4,0
STARLINK-30354,2023-134B,2026-01-01T14:31:44.620320,15.02552257,.0001981,43.0020,201.7151,257.7386,102.3234,0,U,57772,999,12938,.27762E-3,.355E-4,0
STARLINK-30383,2023-134C,2025-12-31T23:46:23.721312,15.02540374,.00008776,43.0020,205.7035,267.0174,93.0568,0,U,57773,999,12928,.10715556E-3,.1244E-4,0
STARLINK-30384,2023-134D,2025-12-31T23:36:47.346912,15.02547211,.00012393,43.0027,205.6523,268.5082,91.5619,0,U,57774,999,12928,.12492595E-3,.1485E-4,0
